QIANFAN-52              
1 62253U 24232S   26065.56948162  .00000077  00000+0  10020-3 0  9990
2 62253  89.0056  32.6456 0014018 316.8468  43.1583 13.51000922 79265
QIANFAN-53              
1 62254U 24232T   26065.62293900  .00000084  00000+0  11228-3 0  9990
2 62254  89.0063  32.7509 0012939 318.5004  41.5164 13.51003655 79239
QIANFAN-54              
1 62255U 24232U   26065.59005721  .00000086  00000+0  11441-3 0  9998
2 62255  89.0055  32.4254 0003049  37.9215 322.2150 13.51003088110738
QIANFAN-55              
1 62785U 25016A   26065.54205128  .00000038  00000+0  40283-4 0  9999
2 62785  88.9691  94.5391 0019454 105.3552 254.9751 13.50996345 58502
QIANFAN-56              
1 62786U 25016B   26065.55842174  .00000022  00000+0  14361-4 0  9990
2 62786  88.9665  94.3512 0018085 107.3461 252.9671 13.50998181 58551
QIANFAN-57              
1 62787U 25016C   26065.59139848  .00000048  00000+0  55207-4 0  9994
2 62787  88.9696  94.5274 0001373 100.4758 259.6548 13.50997188 58528
QIANFAN-58              
1 62788U 25016D   26065.48846896  .00000034  00000+0  34317-4 0  9995
2 62788  88.9666  94.3438 0016028 100.7218 259.5738 13.50998731 58551
QIANFAN-59              
1 62789U 25016E   26065.58737552  .00000044  00000+0  48802-4 0  9990
2 62789  88.9689  94.4271 0016379 103.7526 256.5450 13.50994643 58564
QIANFAN-60              
1 62790U 25016F   26065.39811493  .00000041  00000+0  43888-4 0  9994
2 62790  88.9670  94.4023 0017941 101.2552 259.0616 13.50992561 58524
QIANFAN-61              
1 62791U 25016G   26064.61459919 -.01743446  00000+0 -30832+1 0  9997
2 62791  88.9734  94.7032 0014066  94.6220 265.6536 13.46648286 58432
QIANFAN-62              
1 62792U 25016H   26065.58320405  .00000028  00000+0  24515-4 0  9996
2 62792  88.9684  94.4261 0018248 100.5203 259.8006 13.50996573 58552
QIANFAN-63              
1 62793U 25016J   26065.60792699  .00000032  00000+0  30646-4 0  9995
2 62793  88.9690  94.3807 0018296 105.2281 255.0895 13.50995268 58594
QIANFAN-64              
1 62794U 25016K   26065.57502578  .00000010  00000+0 -31818-5 0  9997
2 62794  88.9677  94.3469 0016242  98.9855 261.3135 13.51005512 58589
QIANFAN-65              
1 62795U 25016L   26065.57081549  .00000027  00000+0  23145-4 0  9998
2 62795  88.9674  94.3704 0016091 100.4986 259.7979 13.51008783 58563
QIANFAN-66              
1 62796U 25016M   26065.59963028  .00000033  00000+0  31847-4 0  9997
2 62796  88.9693  94.3540 0017203  96.6505 263.6604 13.50996971 58611
QIANFAN-67              
1 62797U 25016N   26065.60369195  .00000030  00000+0  27974-4 0  9998
2 62797  88.9684  94.3709 0017160 102.6742 257.6329 13.50995341 58585
QIANFAN-68              
1 62798U 25016P   26065.59559588  .00000038  00000+0  39726-4 0  9990
2 62798  88.9687  94.4200 0017222 101.1580 259.1508 13.51005312 58564
