[{"OBJECT_NAME":"QIANFAN-52","OBJECT_ID":"2024-232S","EPOCH":"2026-03-06T13:40:03.211968","MEAN_MOTION":13.51000922,"ECCENTRICITY":0.00140182,"INCLINATION":89.0056,"RA_OF_ASC_NODE":32.6456,"ARG_OF_PERICENTER":316.8468,"MEAN_ANOMALY":43.1583,"EPHEMERIS_TYPE":0,"CLASSIFICATION_TYPE":"U","NORAD_CAT_ID":62253,"ELEMENT_SET_NO":999,"REV_AT_EPOCH":7926,"BSTAR":0.00010020324,"MEAN_MOTION_DOT":7.7e-7,"MEAN_MOTION_DDOT":0},{"OBJECT_NAME":"QIANFAN-53","OBJECT_ID":"2024-232T","EPOCH":"2026-03-06T14:57:01.929600","MEAN_MOTION":13.51003655,"ECCENTRICITY":0.00129393,"INCLINATION":89.0063,"RA_OF_ASC_NODE":32.7509,"ARG_OF_PERICENTER":318.5004,"MEAN_ANOMALY":41.5164,"EPHEMERIS_TYPE":0,"CLASSIFICATION_TYPE":"U","NORAD_CAT_ID":62254,"ELEMENT_SET_NO":999,"REV_AT_EPOCH":7923,"BSTAR":0.00011228474,"MEAN_MOTION_DOT":8.4e-7,"MEAN_MOTION_DDOT":0},{"OBJECT_NAME":"QIANFAN-54","OBJECT_ID":"2024-232U","EPOCH":"2026-03-06T14:09:40.942944","MEAN_MOTION":13.51003088,"ECCENTRICITY":0.0003049,"INCLINATION":89.0055,"RA_OF_ASC_NODE":32.4254,"ARG_OF_PERICENTER":37.9215,"MEAN_ANOMALY":322.215,"EPHEMERIS_TYPE":0,"CLASSIFICATION_TYPE":"U","NORAD_CAT_ID":62255,"ELEMENT_SET_NO":999,"REV_AT_EPOCH":11073,"BSTAR":0.00011441361,"MEAN_MOTION_DOT":8.6e-7,"MEAN_MOTION_DDOT":0},{"OBJECT_NAME":"QIANFAN-55","OBJECT_ID":"2025-016A","EPOCH":"2026-03-06T13:00:33.230592","MEAN_MOTION":13.50996345,"ECCENTRICITY":0.0019454,"INCLINATION":88.9691,"RA_OF_ASC_NODE":94.5391,"ARG_OF_PERICENTER":105.3552,"MEAN_ANOMALY":254.9751,"EPHEMERIS_TYPE":0,"CLASSIFICATION_TYPE":"U","NORAD_CAT_ID":62785,"ELEMENT_SET_NO":999,"REV_AT_EPOCH":5850,"BSTAR":4.0282992e-5,"MEAN_MOTION_DOT":3.8e-7,"MEAN_MOTION_DDOT":0},{"OBJECT_NAME":"QIANFAN-56","OBJECT_ID":"2025-016B","EPOCH":"2026-03-06T13:24:07.638336","MEAN_MOTION":13.50998181,"ECCENTRICITY":0.00180857,"INCLINATION":88.9665,"RA_OF_ASC_NODE":94.3512,"ARG_OF_PERICENTER":107.3461,"MEAN_ANOMALY":252.9671,"EPHEMERIS_TYPE":0,"CLASSIFICATION_TYPE":"U","NORAD_CAT_ID":62786,"ELEMENT_SET_NO":999,"REV_AT_EPOCH":5855,"BSTAR":1.4360807e-5,"MEAN_MOTION_DOT":2.2e-7,"MEAN_MOTION_DDOT":0},{"OBJECT_NAME":"QIANFAN-57","OBJECT_ID":"2025-016C","EPOCH":"2026-03-06T14:11:36.828672","MEAN_MOTION":13.50997188,"ECCENTRICITY":0.00013739,"INCLINATION":88.9696,"RA_OF_ASC_NODE":94.5274,"ARG_OF_PERICENTER":100.4758,"MEAN_ANOMALY":259.6548,"EPHEMERIS_TYPE":0,"CLASSIFICATION_TYPE":"U","NORAD_CAT_ID":62787,"ELEMENT_SET_NO":999,"REV_AT_EPOCH":5852,"BSTAR":5.5207272e-5,"MEAN_MOTION_DOT":4.8e-7,"MEAN_MOTION_DDOT":0},{"OBJECT_NAME":"QIANFAN-58","OBJECT_ID":"2025-016D","EPOCH":"2026-03-06T11:43:23.718144","MEAN_MOTION":13.50998731,"ECCENTRICITY":0.0016028,"INCLINATION":88.9666,"RA_OF_ASC_NODE":94.3438,"ARG_OF_PERICENTER":100.7218,"MEAN_ANOMALY":259.5738,"EPHEMERIS_TYPE":0,"CLASSIFICATION_TYPE":"U","NORAD_CAT_ID":62788,"ELEMENT_SET_NO":999,"REV_AT_EPOCH":5855,"BSTAR":3.4316845e-5,"MEAN_MOTION_DOT":3.4e-7,"MEAN_MOTION_DDOT":0},{"OBJECT_NAME":"QIANFAN-59","OBJECT_ID":"2025-016E","EPOCH":"2026-03-06T14:05:49.244928","MEAN_MOTION":13.50994643,"ECCENTRICITY":0.00163797,"INCLINATION":88.9689,"RA_OF_ASC_NODE":94.4271,"ARG_OF_PERICENTER":103.7526,"MEAN_ANOMALY":256.545,"EPHEMERIS_TYPE":0,"CLASSIFICATION_TYPE":"U","NORAD_CAT_ID":62789,"ELEMENT_SET_NO":999,"REV_AT_EPOCH":5856,"BSTAR":4.880197e-5,"MEAN_MOTION_DOT":4.4e-7,"MEAN_MOTION_DDOT":0},{"OBJECT_NAME":"QIANFAN-60","OBJECT_ID":"2025-016F","EPOCH":"2026-03-06T09:33:17.129952","MEAN_MOTION":13.50992561,"ECCENTRICITY":0.00179412,"INCLINATION":88.967,"RA_OF_ASC_NODE":94.4023,"ARG_OF_PERICENTER":101.2552,"MEAN_ANOMALY":259.0616,"EPHEMERIS_TYPE":0,"CLASSIFICATION_TYPE":"U","NORAD_CAT_ID":62790,"ELEMENT_SET_NO":999,"REV_AT_EPOCH":5852,"BSTAR":4.3887705e-5,"MEAN_MOTION_DOT":4.1e-7,"MEAN_MOTION_DDOT":0},{"OBJECT_NAME":"QIANFAN-61","OBJECT_ID":"2025-016G","EPOCH":"2026-03-05T14:45:01.370016","MEAN_MOTION":13.46648286,"ECCENTRICITY":0.0014066,"INCLINATION":88.9734,"RA_OF_ASC_NODE":94.7032,"ARG_OF_PERICENTER":94.622,"MEAN_ANOMALY":265.6536,"EPHEMERIS_TYPE":0,"CLASSIFICATION_TYPE":"U","NORAD_CAT_ID":62791,"ELEMENT_SET_NO":999,"REV_AT_EPOCH":5843,"BSTAR":-3.0832,"MEAN_MOTION_DOT":-0.01743446,"MEAN_MOTION_DDOT":0},{"OBJECT_NAME":"QIANFAN-62","OBJECT_ID":"2025-016H","EPOCH":"2026-03-06T13:59:48.829920","MEAN_MOTION":13.50996573,"ECCENTRICITY":0.00182486,"INCLINATION":88.9684,"RA_OF_ASC_NODE":94.4261,"ARG_OF_PERICENTER":100.5203,"MEAN_ANOMALY":259.8006,"EPHEMERIS_TYPE":0,"CLASSIFICATION_TYPE":"U","NORAD_CAT_ID":62792,"ELEMENT_SET_NO":999,"REV_AT_EPOCH":5855,"BSTAR":2.4515401e-5,"MEAN_MOTION_DOT":2.8e-7,"MEAN_MOTION_DDOT":0},{"OBJECT_NAME":"QIANFAN-63","OBJECT_ID":"2025-016J","EPOCH":"2026-03-06T14:35:24.891936","MEAN_MOTION":13.50995268,"ECCENTRICITY":0.00182966,"INCLINATION":88.969,"RA_OF_ASC_NODE":94.3807,"ARG_OF_PERICENTER":105.2281,"MEAN_ANOMALY":255.0895,"EPHEMERIS_TYPE":0,"CLASSIFICATION_TYPE":"U","NORAD_CAT_ID":62793,"ELEMENT_SET_NO":999,"REV_AT_EPOCH":5859,"BSTAR":3.0646155e-5,"MEAN_MOTION_DOT":3.2e-7,"MEAN_MOTION_DDOT":0},{"OBJECT_NAME":"QIANFAN-64","OBJECT_ID":"2025-016K","EPOCH":"2026-03-06T13:48:02.227392","MEAN_MOTION":13.51005512,"ECCENTRICITY":0.00162423,"INCLINATION":88.9677,"RA_OF_ASC_NODE":94.3469,"ARG_OF_PERICENTER":98.9855,"MEAN_ANOMALY":261.3135,"EPHEMERIS_TYPE":0,"CLASSIFICATION_TYPE":"U","NORAD_CAT_ID":62794,"ELEMENT_SET_NO":999,"REV_AT_EPOCH":5858,"BSTAR":-3.181772e-6,"MEAN_MOTION_DOT":1.0e-7,"MEAN_MOTION_DDOT":0},{"OBJECT_NAME":"QIANFAN-65","OBJECT_ID":"2025-016L","EPOCH":"2026-03-06T13:41:58.458336","MEAN_MOTION":13.51008783,"ECCENTRICITY":0.00160912,"INCLINATION":88.9674,"RA_OF_ASC_NODE":94.3704,"ARG_OF_PERICENTER":100.4986,"MEAN_ANOMALY":259.7979,"EPHEMERIS_TYPE":0,"CLASSIFICATION_TYPE":"U","NORAD_CAT_ID":62795,"ELEMENT_SET_NO":999,"REV_AT_EPOCH":5856,"BSTAR":2.3145487e-5,"MEAN_MOTION_DOT":2.7e-7,"MEAN_MOTION_DDOT":0},{"OBJECT_NAME":"QIANFAN-66","OBJECT_ID":"2025-016M","EPOCH":"2026-03-06T14:23:28.056192","MEAN_MOTION":13.50996971,"ECCENTRICITY":0.00172038,"INCLINATION":88.9693,"RA_OF_ASC_NODE":94.354,"ARG_OF_PERICENTER":96.6505,"MEAN_ANOMALY":263.6604,"EPHEMERIS_TYPE":0,"CLASSIFICATION_TYPE":"U","NORAD_CAT_ID":62796,"ELEMENT_SET_NO":999,"REV_AT_EPOCH":5861,"BSTAR":3.1846707e-5,"MEAN_MOTION_DOT":3.3e-7,"MEAN_MOTION_DDOT":0},{"OBJECT_NAME":"QIANFAN-67","OBJECT_ID":"2025-016N","EPOCH":"2026-03-06T14:29:18.984480","MEAN_MOTION":13.50995341,"ECCENTRICITY":0.00171602,"INCLINATION":88.9684,"RA_OF_ASC_NODE":94.3709,"ARG_OF_PERICENTER":102.6742,"MEAN_ANOMALY":257.6329,"EPHEMERIS_TYPE":0,"CLASSIFICATION_TYPE":"U","NORAD_CAT_ID":62797,"ELEMENT_SET_NO":999,"REV_AT_EPOCH":5858,"BSTAR":2.7974305e-5,"MEAN_MOTION_DOT":3.0e-7,"MEAN_MOTION_DDOT":0},{"OBJECT_NAME":"QIANFAN-68","OBJECT_ID":"2025-016P","EPOCH":"2026-03-06T14:17:39.484032","MEAN_MOTION":13.51005312,"ECCENTRICITY":0.00172222,"INCLINATION":88.9687,"RA_OF_ASC_NODE":94.42,"ARG_OF_PERICENTER":101.158,"MEAN_ANOMALY":259.1508,"EPHEMERIS_TYPE":0,"CLASSIFICATION_TYPE":"U","NORAD_CAT_ID":62798,"ELEMENT_SET_NO":999,"REV_AT_EPOCH":5856,"BSTAR":3.9725508e-5,"MEAN_MOTION_DOT":3.8e-7,"MEAN_MOTION_DDOT":0}]
